[{"OBJECT_NAME":"STARLINK-30562","OBJECT_ID":"2023-156F","EPOCH":"2026-03-09T12:55:05.181888","MEAN_MOTION":15.3018714,"ECCENTRICITY":0.00012021,"INCLINATION":53.1601,"RA_OF_ASC_NODE":168.5952,"ARG_OF_PERICENTER":82.695,"MEAN_ANOMALY":277.4187,"EPHEMERIS_TYPE":0,"CLASSIFICATION_TYPE":"U","NORAD_CAT_ID":58033,"ELEMENT_SET_NO":999,"REV_AT_EPOCH":13501,"BSTAR":4.07713e-7,"MEAN_MOTION_DOT":-3.47e-6,"MEAN_MOTION_DDOT":0},{"OBJECT_NAME":"PEGASUS R\/B","OBJECT_ID":"2007-015B","EPOCH":"2026-03-09T10:58:33.801024","MEAN_MOTION":15.26741121,"ECCENTRICITY":0.00105976,"INCLINATION":97.9168,"RA_OF_ASC_NODE":31.3919,"ARG_OF_PERICENTER":317.6341,"MEAN_ANOMALY":42.4077,"EPHEMERIS_TYPE":0,"CLASSIFICATION_TYPE":"U","NORAD_CAT_ID":31305,"ELEMENT_SET_NO":999,"REV_AT_EPOCH":3383,"BSTAR":0.00044093522,"MEAN_MOTION_DOT":0.00011537,"MEAN_MOTION_DDOT":0}]
